NORAD_CAT_ID,OBJECT_NAME,OBJECT_TYPE,EPOCH,MEAN_MOTION,ECCENTRICITY,INCLINATION,RA_OF_ASC_NODE,ARG_OF_PERICENTER,MEAN_ANOMALY,BSTAR,MEAN_MOTION_DOT,MEAN_MOTION_DDOT,TLE_LINE0,TLE_LINE1,TLE_LINE2,SEMIMAJOR_AXIS,PERIOD,APOGEE,PERIGEE,DECAYED
53801.0,STARLINK-4715,PAYLOAD,2023-06-20 09:15:03,15.08833273,0.0001031,53.218,43.0568,113.3567,246.7533,0.00011622,1.562e-05,0.0,0 STARLINK-4715,1 53801U 22111AE  23171.38545561  .00001562  00000-0  11622-3 0  9994,2 53801  53.2180  43.0568 0001031 113.3567 246.7533 15.08833273 43057,6917.901,95.438,540.479,539.053,0.0
53801.0,STARLINK-4715,PAYLOAD,2023-06-20 10:50:26,15.08835052,8.24e-05,53.2174,42.764,114.6591,245.4487,0.00010515,1.386e-05,0.0,0 STARLINK-4715,1 53801U 22111AE  23171.45169473  .00001386  00000-0  10515-3 0  9990,2 53801  53.2174  42.7640 0000824 114.6591 245.4487 15.08835052 43878,6917.896,95.438,540.331,539.19,0.0
53801.0,STARLINK-4715,PAYLOAD,2023-06-20 20:22:45,15.08843727,8.69e-05,53.2175,40.98,99.2194,260.8896,-3.0041e-05,-7.66e-06,0.0,0 STARLINK-4715,1 53801U 22111AE  23171.84913316 -.00000766  00000-0 -30041-4 0  9996,2 53801  53.2175  40.9800 0000869  99.2194 260.8896 15.08843727 43933,6917.869,95.437,540.335,539.133,0.0
53801.0,STARLINK-4715,PAYLOAD,2023-06-20 21:58:08,15.08845312,8.81e-05,53.2175,40.6826,99.6168,260.4924,-1.7734e-05,-5.7e-06,0.0,0 STARLINK-4715,1 53801U 22111AE  23171.91537151 -.00000570  00000-0 -17734-4 0  9990,2 53801  53.2175  40.6826 0000881  99.6168 260.4924 15.08845312 43139,6917.864,95.437,540.339,539.12,0.0
53801.0,STARLINK-4715,PAYLOAD,2023-06-21 18:38:09,15.08835843,8.63e-05,53.2174,36.8176,86.1791,273.93,2.6903e-05,1.4e-06,0.0,0 STARLINK-4715,1 53801U 22111AE  23172.77649652  .00000140  00000-0  26903-4 0  9994,2 53801  53.2174  36.8176 0000863  86.1791 273.9300 15.08835843 43265,6917.893,95.438,540.355,539.161,0.0
53801.0,STARLINK-4715,PAYLOAD,2023-06-21 20:13:32,15.08837442,8.94e-05,53.2174,36.5206,82.5572,277.5521,4.0699e-05,3.6e-06,0.0,0 STARLINK-4715,1 53801U 22111AE  23172.84273548  .00000360  00000-0  40699-4 0  9991,2 53801  53.2174  36.5206 0000894  82.5572 277.5521 15.08837442 44080,6917.888,95.438,540.372,539.135,0.0
53801.0,STARLINK-4715,PAYLOAD,2023-06-22 00:59:41,15.08843763,9.08e-05,53.2174,35.628,84.8111,275.2985,2.7581e-05,1.51e-06,0.0,0 STARLINK-4715,1 53801U 22111AE  23173.04145172  .00000151  00000-0  27581-4 0  9998,2 53801  53.2174  35.6280 0000908  84.8111 275.2985 15.08843763 43308,6917.869,95.437,540.362,539.106,0.0
53801.0,STARLINK-4715,PAYLOAD,2023-06-22 18:28:56,15.08835914,8.7e-05,53.2178,32.3565,80.2793,279.8297,0.00011516,1.545e-05,0.0,0 STARLINK-4715,1 53801U 22111AE  23173.77009594  .00001545  00000-0  11516-3 0  9993,2 53801  53.2178  32.3565 0000870  80.2793 279.8297 15.08835914 43413,6917.893,95.438,540.36,539.156,0.0
53801.0,STARLINK-4715,PAYLOAD,2023-06-23 23:05:52,15.08843382,9.38e-05,53.2175,27.0052,86.635,273.475,5.0008e-05,5.08e-06,0.0,0 STARLINK-4715,1 53801U 22111AE  23174.96241353  .00000508  00000-0  50008-4 0  9994,2 53801  53.2175  27.0052 0000938  86.6350 273.4750 15.08843382 43597,6917.87,95.437,540.384,539.086,0.0
53801.0,STARLINK-4715,PAYLOAD,2023-06-24 07:02:48,15.08839254,9.74e-05,53.218,25.5209,93.178,266.9324,-2.733e-05,-7.23e-06,0.0,0 STARLINK-4715,1 53801U 22111AE  23175.29361903 -.00000723  00000-0 -27330-4 0  9998,2 53801  53.2180  25.5209 0000974  93.1780 266.9324 15.08839254 43643,6917.883,95.438,540.421,539.074,0.0
53801.0,STARLINK-4715,PAYLOAD,2023-06-25 08:28:58,15.08840314,0.0001039,53.2172,20.7607,80.7509,279.36,2.9215e-05,1.77e-06,0.0,0 STARLINK-4715,1 53801U 22111AE  23176.35345954  .00000177  00000-0  29215-4 0  9999,2 53801  53.2172  20.7607 0001039  80.7509 279.3600 15.08840314 43809,6917.879,95.438,540.463,539.026,0.0
53801.0,STARLINK-4715,PAYLOAD,2023-06-25 21:12:03,15.08847431,9.47e-05,53.2174,18.3811,76.2698,283.8399,8.9216e-05,1.133e-05,0.0,0 STARLINK-4715,1 53801U 22111AE  23176.88337376  .00001133  00000-0  89216-4 0  9996,2 53801  53.2174  18.3811 0000947  76.2698 283.8399 15.08847431 43887,6917.858,95.437,540.378,539.068,0.0
53801.0,STARLINK-4715,PAYLOAD,2023-06-26 06:44:22,15.08839647,9.87e-05,53.2175,16.5961,75.0773,285.0329,1.5292e-05,-4.4e-07,0.0,0 STARLINK-4715,1 53801U 22111AE  23177.28082079 -.00000044  00000-0  15292-4 0  9992,2 53801  53.2175  16.5961 0000987  75.0773 285.0329 15.08839647 43943,6917.881,95.438,540.429,539.064,0.0
53801.0,STARLINK-4715,PAYLOAD,2023-06-27 19:18:14,15.0884346,8.65e-05,53.2182,9.7553,103.5514,256.5574,6.6242e-05,7.67e-06,0.0,0 STARLINK-4715,1 53801U 22111AE  23178.80433877  .00000767  00000-0  66242-4 0  9999,2 53801  53.2182   9.7553 0000865 103.5514 256.5574 15.08843460 44176,6917.87,95.437,540.333,539.136,0.0
53801.0,STARLINK-4715,PAYLOAD,2023-06-28 17:33:39,15.08835344,8.52e-05,53.2187,5.5927,84.3941,275.7148,8.2203e-05,1.021e-05,0.0,0 STARLINK-4715,1 53801U 22111AE  23179.73170335  .00001021  00000-0  82203-4 0  9998,2 53801  53.2187   5.5927 0000852  84.3941 275.7148 15.08835344 44314,6917.895,95.438,540.349,539.17,0.0
53801.0,STARLINK-4715,PAYLOAD,2023-06-29 18:59:49,15.08844354,0.0001209,53.2191,0.8437,114.6763,245.4355,6.6717e-06,-1.82e-06,0.0,0 STARLINK-4715,1 53801U 22111AE  23180.79154114 -.00000182  00000-0  66717-5 0  9994,2 53801  53.2191   0.8437 0001209 114.6763 245.4355 15.08844354 44471,6917.867,95.437,540.568,538.896,0.0
53801.0,STARLINK-4715,PAYLOAD,2023-06-30 15:39:50,15.08837379,0.0001177,53.2186,356.9779,114.2998,245.8117,-1.2387e-05,-4.85e-06,0.0,0 STARLINK-4715,1 53801U 22111AE  23181.65266658 -.00000485  00000-0 -12387-4 0  9997,2 53801  53.2186 356.9779 0001177 114.2998 245.8117 15.08837379 44603,6917.888,95.438,540.568,538.939,0.0
53801.0,STARLINK-4715,PAYLOAD,2023-07-01 18:41:23,15.08842374,9.5e-05,53.2175,351.9155,87.1317,272.9784,3.3955e-05,2.53e-06,0.0,0 STARLINK-4715,1 53801U 22111AE  23182.77874372  .00000253  00000-0  33955-4 0  9994,2 53801  53.2175 351.9155 0000950  87.1317 272.9784 15.08842374 44775,6917.873,95.437,540.395,539.081,0.0
53801.0,STARLINK-4715,PAYLOAD,2023-07-02 15:21:24,15.08835129,0.0001009,53.2178,348.0498,87.9582,272.1526,7.5765e-05,9.18e-06,0.0,0 STARLINK-4715,1 53801U 22111AE  23183.63986807  .00000918  00000-0  75765-4 0  9990,2 53801  53.2178 348.0498 0001009  87.9582 272.1526 15.08835129 44904,6917.895,95.438,540.458,539.062,0.0
53801.0,STARLINK-4715,PAYLOAD,2023-07-02 23:18:19,15.08847424,0.0001028,53.2179,346.563,89.4699,270.6411,9.8191e-05,1.276e-05,0.0,0 STARLINK-4715,1 53801U 22111AE  23183.97106003  .00001276  00000-0  98191-4 0  9995,2 53801  53.2179 346.5630 0001028  89.4699 270.6411 15.08847424 44955,6917.858,95.437,540.434,539.012,0.0
53801.0,STARLINK-4715,PAYLOAD,2023-07-03 04:04:29,15.0884225,0.0001031,53.218,345.6711,88.4673,271.6437,4.933e-05,4.97e-06,0.0,0 STARLINK-4715,1 53801U 22111AE  23184.16978499  .00000497  00000-0  49330-4 0  9998,2 53801  53.2180 345.6711 0001031  88.4673 271.6437 15.08842250 44986,6917.874,95.437,540.452,539.025,0.0
53801.0,STARLINK-4715,PAYLOAD,2023-07-03 23:09:05,15.08867882,0.0001117,53.2181,342.0995,110.2458,249.8654,-0.00015452,-2.748e-05,0.0,0 STARLINK-4715,1 53801U 22111AE  23184.96465048 -.00002748  00000-0 -15452-3 0  9997,2 53801  53.2181 342.0995 0001117 110.2458 249.8654 15.08867882 45103,6917.795,95.436,540.433,538.887,0.0
53801.0,STARLINK-4715,PAYLOAD,2023-07-04 16:38:22,15.08837679,9.88e-05,53.2182,338.8296,100.0992,260.0111,-5.6496e-05,-1.187e-05,0.0,0 STARLINK-4715,1 53801U 22111AE  23185.69331045 -.00001187  00000-0 -56496-4 0  9997,2 53801  53.2182 338.8296 0000988 100.0992 260.0111 15.08837679 45212,6917.887,95.438,540.436,539.069,0.0
53801.0,STARLINK-4715,PAYLOAD,2023-07-04 21:24:30,15.08844789,8.92e-05,53.2189,337.9377,89.5285,270.5809,7.3096e-06,-1.71e-06,0.0,0 STARLINK-4715,1 53801U 22111AE  23185.89202357 -.00000171  00000-0  73096-5 0  9999,2 53801  53.2189 337.9377 0000892  89.5285 270.5809 15.08844789 45242,6917.866,95.437,540.348,539.114,0.0
53801.0,STARLINK-4715,PAYLOAD,2023-07-05 13:18:22,15.08839582,9.91e-05,53.2184,334.9656,79.9011,280.2092,3.14e-05,2.12e-06,0.0,0 STARLINK-4715,1 53801U 22111AE  23186.55442741  .00000212  00000-0  31400-4 0  9993,2 53801  53.2184 334.9656 0000991  79.9011 280.2092 15.08839582 45342,6917.882,95.438,540.432,539.061,0.0
53801.0,STARLINK-4715,PAYLOAD,2023-07-05 21:15:17,15.0885142,9.98e-05,53.2185,333.478,85.7897,274.3209,4.2837e-05,3.94e-06,0.0,0 STARLINK-4715,1 53801U 22111AE  23186.88561766  .00000394  00000-0  42837-4 0  9995,2 53801  53.2185 333.4780 0000998  85.7897 274.3209 15.08851420 45393,6917.845,95.437,540.401,539.02,0.0
53801.0,STARLINK-4715,PAYLOAD,2023-07-06 17:55:18,15.08845725,0.0001055,53.2185,329.613,76.6556,283.4554,7.5652e-05,9.17e-06,0.0,0 STARLINK-4715,1 53801U 22111AE  23187.74674214  .00000917  00000-0  75652-4 0  9996,2 53801  53.2185 329.6130 0001055  76.6556 283.4554 15.08845725 45525,6917.863,95.437,540.458,538.998,0.0
53801.0,STARLINK-4715,PAYLOAD,2023-07-07 09:49:10,15.08833205,0.0001024,53.2179,326.6405,79.3361,280.7746,1.8631e-05,9e-08,0.0,0 STARLINK-4715,1 53801U 22111AE  23188.40915286  .00000009  00000-0  18631-4 0  9993,2 53801  53.2179 326.6405 0001024  79.3361 280.7746 15.08833205 45624,6917.901,95.438,540.475,539.058,0.0
53801.0,STARLINK-4715,PAYLOAD,2023-07-07 16:10:42,15.08843939,9.55e-05,53.2183,325.4512,83.295,276.8151,5.6692e-05,6.15e-06,0.0,0 STARLINK-4715,1 53801U 22111AE  23188.67410496  .00000615  00000-0  56692-4 0  9997,2 53801  53.2183 325.4512 0000955  83.2950 276.8151 15.08843939 45660,6917.868,95.437,540.394,539.073,0.0
53801.0,STARLINK-4715,PAYLOAD,2023-07-08 09:39:57,15.08833492,9.65e-05,53.2173,322.1807,80.0616,280.0485,1.3655e-05,-7e-07,0.0,0 STARLINK-4715,1 53801U 22111AE  23189.40275307 -.00000070  00000-0  13655-4 0  9997,2 53801  53.2173 322.1807 0000965  80.0616 280.0485 15.08833492 45777,6917.9,95.438,540.433,539.098,0.0
